QIANFAN-73              
1 63159U 25046A   25252.24690457  .00000177  00000+0  25459-3 0  9996
2 63159  88.9851 329.7814 0015879  44.8610 315.3822 13.50970967 34651
QIANFAN-74              
1 63160U 25046B   25252.23034532  .00000171  00000+0  24710-3 0  9996
2 63160  88.9851 329.6715 0002166 109.1259 251.0126 13.50976830 34716
QIANFAN-75              
1 63161U 25046C   25252.29219076  .00000187  00000+0  27017-3 0  9991
2 63161  88.9852 329.8973 0017065  47.2196 313.0387 13.50973416 34593
QIANFAN-76              
1 63162U 25046D   25252.28800354  .00000171  00000+0  24564-3 0  9993
2 63162  88.9852 329.8788 0014675  49.0221 311.2197 13.50969302 34601
QIANFAN-77              
1 63163U 25046E   25252.29084316  .00000401  00000+0  28226-3 0  9992
2 63163  88.9847 328.6610 0014983  24.8374 335.3521 13.96039614 35275
QIANFAN-78              
1 63164U 25046F   25252.25513379  .00000182  00000+0  26330-3 0  9995
2 63164  88.9851 329.7472 0016113  50.5791 309.6783 13.50972884 34677
QIANFAN-79              
1 63165U 25046G   25252.28379028  .00000189  00000+0  27390-3 0  9994
2 63165  88.9855 329.8481 0015738  49.1049 311.1462 13.50975168 34620
QIANFAN-80              
1 63166U 25046H   25252.22630144  .00000183  00000+0  26462-3 0  9991
2 63166  88.9851 329.5635 0014896  53.7292 306.5233 13.50975225 34774
